ONEWEB-0549             
1 56051U 23043F   25069.22180472  .00000118  00000+0  25343-3 0  9996
2 56051  87.9345 336.4783 0002117  70.7182 289.4180 13.21825975 97848
ONEWEB-0550             
1 56052U 23043G   25068.75501104 -.00000029  00000+0 -10238-3 0  9993
2 56052  87.9343 336.5689 0001885  83.5165 276.6184 13.21824619 96875
ONEWEB-0551             
1 56053U 23043H   25069.20554024  .00000062  00000+0  13165-3 0  9991
2 56053  87.9138 351.6590 0002050  75.1036 285.0321 13.15549654 96307
ONEWEB-0552             
1 56054U 23043J   25069.27857578  .00000109  00000+0  23281-3 0  9991
2 56054  87.9341 336.4745 0002110  80.6644 279.4729 13.21826031 97854
ONEWEB-0553             
1 56055U 23043K   25068.76450063  .00000038  00000+0  64966-4 0  9990
2 56055  87.9100 321.3505 0001400  73.1848 286.9437 13.16595997 97867
ONEWEB-0554             
1 56056U 23043L   25069.20782592  .00000160  00000+0  38395-3 0  9998
2 56056  87.9100 321.2902 0002035  96.2685 263.8677 13.16595211 98813
ONEWEB-0555             
1 56057U 23043M   25069.16981455  .00000030  00000+0  44827-4 0  9997
2 56057  87.9101 321.2634 0001108  84.6532 275.4726 13.16592398 98816
ONEWEB-0557             
1 56058U 23043N   25069.18406519  .00000001  00000+0 -30231-4 0  9996
2 56058  87.9098 321.2850 0001111 114.4638 245.6609 13.16596925 98814
